GLOBALSTAR M063         
1 26081U 00008A   24188.68127801 -.00000028  00000+0  80095-3 0  9996
2 26081  51.9966 301.5018 0004266  19.3802 126.7900 11.86157012116571
GLOBALSTAR M062         
1 26082U 00008B   24188.88825023  .00000053  00000+0  10789-2 0  9999
2 26082  51.9862  31.1816 0007862  93.3009  10.8307 12.43441058453663
GLOBALSTAR M060         
1 26083U 00008C   24188.82210281 -.00000072  00000+0  19222-3 0  9992
2 26083  52.0035 302.5255 0004004 142.8634 357.9815 12.17635623110291
GLOBALSTAR M064         
1 26084U 00008D   24188.91307520 -.00000054  00000+0  41876-3 0  9996
2 26084  52.0046  43.7887 0002146  96.7554 263.3523 11.88520194126041
GLOBALSTAR M065         
1 31571U 07020A   24188.77321472 -.00000080  00000+0  13095-3 0  9991
2 31571  51.9864 197.5672 0009838 262.5778 269.0962 12.61973442789797
GLOBALSTAR M069         
1 31573U 07020C   24188.88896216 -.00000111  00000+0 -38432-4 0  9997
2 31573  51.9932 153.0144 0000651 332.8880  52.3845 12.62276570790946
GLOBALSTAR M072         
1 31574U 07020D   24188.91693358 -.00000060  00000+0  24401-3 0  9996
2 31574  52.0071 248.8885 0000575 199.1884 331.6264 12.62259504789215
GLOBALSTAR M071         
1 31576U 07020F   24188.92026292 -.00000116  00000+0 -67516-4 0  9994
2 31576  52.0045 158.1023 0000554  20.8303  25.1353 12.62269268452138
